{"version": 0.6, "generator": "Overpass API 0.7.62.1 084b4234", "osm3s": {"timestamp_osm_base": "2024-04-09T16:16:00Z", "copyright": "The data included in this document is from www.openstreetmap.org. The data is made available under ODbL."}, "elements": [{"type": "node", "id": 9422865575, "lat": 55.1349024, "lon": 9.9789208, "tags": {"name": "Lindehoved", "natural": "cape"}}, {"type": "node", "id": 9422865576, "lat": 55.1309965, "lon": 10.0611315, "tags": {"name": "Vesterhoved", "natural": "cape"}}, {"type": "node", "id": 9422865577, "lat": 55.1212154, "lon": 10.1392552, "tags": {"name": "B\u00f8nnelandshoved", "natural": "cape"}}, {"type": "node", "id": 9422865578, "lat": 55.1234613, "lon": 10.1460195, "tags": {"name": "Torn\u00e6s Hoved", "natural": "cape"}}, {"type": "node", "id": 9422865579, "lat": 55.1233112, "lon": 10.1525268, "tags": {"name": "Lillehoved", "natural": "cape"}}, {"type": "node", "id": 9422865580, "lat": 55.1304953, "lon": 10.0665103, "tags": {"name": "S\u00f8nderhoved", "natural": "cape"}}, {"type": "node", "id": 9422865581, "lat": 55.1083323, "lon": 10.0888003, "tags": {"name": "Kalv\u00f8re", "natural": "cape"}}, {"type": "node", "id": 9422865582, "lat": 55.0973892, "lon": 10.0796604, "tags": {"name": "Dyndkrog", "natural": "cape"}}, {"type": "node", "id": 9422865583, "lat": 55.086293, "lon": 10.0701685, "tags": {"name": "Kn\u00e6et", "natural": "cape"}}, {"type": "node", "id": 9422865584, "lat": 55.0761005, "lon": 10.0748429, "tags": {"name": "S\u00f8nderhj\u00f8rne", "natural": "cape"}}, {"type": "node", "id": 9422865585, "lat": 55.0798985, "lon": 10.0951482, "tags": {"name": "Horne N\u00e6s", "natural": "cape"}}, {"type": "node", "id": 9422865586, "lat": 55.0822012, "lon": 10.1526305, "tags": {"name": "Stensbjerg Kn\u00e6", "natural": "cape"}}, {"type": "node", "id": 9422865587, "lat": 55.0331091, "lon": 10.1422819, "tags": {"name": "Pelles Grund", "natural": "cape"}}, {"type": "node", "id": 9422865588, "lat": 55.0736316, "lon": 10.2225326, "tags": {"name": "Alsg\u00e5rdshoved", "natural": "cape"}}, {"type": "node", "id": 9422865589, "lat": 55.0761901, "lon": 10.2266546, "tags": {"name": "Sisserhoved", "natural": "cape"}}, {"type": "node", "id": 10694329042, "lat": 55.03792, "lon": 9.6969737, "tags": {"name": "Dronninghoved", "name:de": "Dronningh\u00f6ft", "natural": "cape"}}, {"type": "node", "id": 10694329043, "lat": 55.0369044, "lon": 9.7047966, "tags": {"name": "R\u00f8den\u00e6b", "natural": "cape"}}, {"type": "node", "id": 10694329044, "lat": 54.9961966, "lon": 9.7759978, "tags": {"name": "Stevning", "natural": "cape"}}, {"type": "node", "id": 10694329046, "lat": 54.9879359, "lon": 9.7811876, "tags": {"name": "Stolbro N\u00e6s", "natural": "cape"}}, {"type": "node", "id": 10694329047, "lat": 54.9832954, "lon": 9.7845685, "tags": {"name": "Nakken", "natural": "cape"}}, {"type": "node", "id": 10694329048, "lat": 54.9874481, "lon": 9.7374674, "tags": {"name": "Snogb\u00e6k Huk", "name:de": "Schnabek-Haken", "natural": "cape"}}, {"type": "node", "id": 10694329049, "lat": 54.9775343, "lon": 9.7517548, "tags": {"name": "Vesterhage", "natural": "cape"}}, {"type": "node", "id": 10694329050, "lat": 54.982239, "lon": 9.7594103, "tags": {"name": "\u00d8sterhage", "natural": "cape"}}, {"type": "node", "id": 10694329051, "lat": 54.9796365, "lon": 9.7567098, "tags": {"name": "Arnkils\u00f8re", "name:de": "Arnkiels-\u00d6re", "natural": "cape"}}, {"type": "node", "id": 10694329052, "lat": 54.9261275, "lon": 9.7627301, "tags": {"name": "Surl\u00f8kke Hage", "natural": "cape"}}, {"type": "node", "id": 10694329053, "lat": 54.889426, "lon": 9.8317013, "tags": {"name": "Klintinghoved", "natural": "cape"}}, {"type": "node", "id": 10694329054, "lat": 54.8993375, "lon": 9.8798375, "tags": {"name": "Trillen", "natural": "cape"}}, {"type": "node", "id": 10694329055, "lat": 54.8783781, "lon": 9.8692499, "tags": {"name": "Kegn\u00e6s Ende", "natural": "cape"}}, {"type": "node", "id": 10694329056, "lat": 54.8771839, "lon": 10.0712495, "tags": {"name": "P\u00f8lshuk", "natural": "cape"}}, {"type": "node", "id": 10694329057, "lat": 55.0191992, "lon": 9.9207243, "tags": {"name": "Bostedhoved", "natural": "cape"}}, {"type": "node", "id": 10694329059, "lat": 55.083605, "lon": 9.74883, "tags": {"name": "Tontoft Nakke", "name:de": "Tundtofter Nacken", "natural": "cape"}}, {"type": "node", "id": 10694329060, "lat": 55.0435716, "lon": 9.5783926, "tags": {"name": "Varn\u00e6s Hoved", "name:de": "Warnitzh\u00f6ft", "natural": "cape"}}, {"type": "node", "id": 10694329062, "lat": 55.0755953, "lon": 9.5503705, "tags": {"name": "St\u00e6rb\u00e6k Sten", "natural": "cape"}}, {"type": "node", "id": 10694329063, "lat": 55.0892045, "lon": 9.5504029, "tags": {"name": "Knudshoved", "name:de": "Knudsh\u00f6ft", "natural": "cape"}}, {"type": "node", "id": 10694329066, "lat": 55.1281764, "lon": 9.5198148, "tags": {"name": "S\u00f8nderballe Hoved", "name:de": "S\u00fcderballigh\u00f6ft", "natural": "cape"}}]}