{"version": 0.6, "generator": "Overpass API 0.7.62.1 084b4234", "osm3s": {"timestamp_osm_base": "2024-04-09T16:16:00Z", "copyright": "The data included in this document is from www.openstreetmap.org. The data is made available under ODbL."}, "elements": [{"type": "node", "id": 642972468, "lat": 55.5185341, "lon": 9.5889648, "tags": {"alt_name": "Houens Odde", "name": "Hovens Odde", "natural": "cape", "wikidata": "Q12317369", "wikipedia": "da:Hovens Odde"}}, {"type": "node", "id": 685631160, "lat": 55.4975404, "lon": 9.6048375, "tags": {"name": "Skarre Odde", "natural": "cape"}}, {"type": "node", "id": 686195544, "lat": 55.4985304, "lon": 9.6252116, "tags": {"name": "L\u00f8ver Odde", "natural": "cape"}}, {"type": "node", "id": 747083600, "lat": 55.4617607, "lon": 9.6932551, "tags": {"name": "Stenderup Hage", "name:de": "Stenderuphage", "natural": "cape"}}, {"type": "node", "id": 850754662, "lat": 55.5004245, "lon": 9.6809086, "tags": {"name": "Skansehage", "natural": "cape"}}, {"type": "node", "id": 1526191034, "lat": 55.5137908, "lon": 9.6051872, "tags": {"name": "Stegenav", "natural": "cape"}}, {"type": "node", "id": 1595960270, "lat": 55.4945959, "lon": 9.7020746, "tags": {"name": "Odden", "natural": "cape"}}, {"type": "node", "id": 2689825539, "lat": 55.4910296, "lon": 9.6432332, "tags": {"name": "R\u00f8nshoved", "name:de": "R\u00f6nsh\u00f6ft", "natural": "cape"}}, {"type": "node", "id": 9422865572, "lat": 55.1837252, "lon": 10.0171995, "tags": {"name": "Tj\u00f8rnehoved", "natural": "cape"}}, {"type": "node", "id": 9422865573, "lat": 55.1845888, "lon": 9.9951687, "tags": {"name": "H\u00f8rkop", "natural": "cape"}}, {"type": "node", "id": 9422865574, "lat": 55.178082, "lon": 9.9921765, "tags": {"name": "Halen", "natural": "cape"}}, {"type": "node", "id": 9423135806, "lat": 55.3431512, "lon": 9.8822814, "tags": {"name": "\u00d8ret", "natural": "cape"}}, {"type": "node", "id": 9423135807, "lat": 55.2684109, "lon": 9.8823992, "tags": {"name": "Asn\u00e6s", "natural": "cape"}}, {"type": "node", "id": 10616562753, "lat": 55.4375903, "lon": 9.7407163, "tags": {"name": "T\u00f8nn\u00e6s Odde", "natural": "cape"}}, {"type": "node", "id": 10616562754, "lat": 55.452153, "lon": 9.7636857, "tags": {"name": "Torbenhoved", "natural": "cape"}}, {"type": "node", "id": 10616562756, "lat": 55.4977492, "lon": 9.6918518, "tags": {"name": "Espenhoved", "natural": "cape"}}, {"type": "node", "id": 10616562757, "lat": 55.4914934, "lon": 9.6759562, "tags": {"name": "Stenhoved", "natural": "cape"}}, {"type": "node", "id": 10616562758, "lat": 55.5092361, "lon": 9.6403517, "tags": {"name": "B\u00f8rup Sande", "natural": "cape"}}, {"type": "node", "id": 10616574633, "lat": 55.2007273, "lon": 9.695652, "tags": {"name": "Halk Hoved", "name:de": "Halkerh\u00f6ft", "natural": "cape"}}, {"type": "node", "id": 10616574634, "lat": 55.2376458, "lon": 9.7154915, "tags": {"name": "R\u00e5de Hoved", "name:de": "Raaderh\u00f6ft", "natural": "cape"}}, {"type": "node", "id": 10616574635, "lat": 55.2470126, "lon": 9.7149382, "tags": {"name": "Gammelbro", "natural": "cape"}}, {"type": "node", "id": 10616574637, "lat": 55.300984, "lon": 9.8275784, "tags": {"name": "Klintende", "natural": "cape"}}, {"type": "node", "id": 10616574638, "lat": 55.316106, "lon": 9.7903576, "tags": {"name": "Mellemmose Hage", "natural": "cape"}}, {"type": "node", "id": 10616574640, "lat": 55.2832911, "lon": 9.6579984, "tags": {"name": "Stagodde", "natural": "cape"}}, {"type": "node", "id": 10616574641, "lat": 55.2852054, "lon": 9.6374577, "tags": {"name": "Haderslev N\u00e6s", "natural": "cape"}}, {"type": "node", "id": 10616574642, "lat": 55.3133325, "lon": 9.6394764, "tags": {"name": "J\u00f8rl Hage", "name:de": "J\u00f6rgethage", "natural": "cape"}}, {"type": "node", "id": 10616574643, "lat": 55.3280805, "lon": 9.6501192, "tags": {"name": "Knudshoved", "name:de": "Knudsh\u00f6ft", "natural": "cape"}}, {"type": "node", "id": 10616574644, "lat": 55.3398442, "lon": 9.6480094, "tags": {"name": "Anslet Hage", "name:de": "Anslethage", "natural": "cape"}}, {"type": "node", "id": 10616574645, "lat": 55.3574567, "lon": 9.6190134, "tags": {"name": "Gravenshoved", "name:de": "Gravensh\u00f6ft", "natural": "cape"}}, {"type": "node", "id": 11418099584, "lat": 55.4924827, "lon": 9.5690887, "tags": {"name": "L\u00f8ger Odde", "name:de": "L\u00f6ger Odde", "natural": "cape"}}]}